COSMOS 2361 [-]         
1 25590U 98076A   22359.49615642  .00000080  00000+0  70278-4 0  9994
2 25590  82.9345  64.9474 0032298  39.6278 331.7829 13.73037987202754
COSMOS 2378 [-]         
1 26818U 01023A   22358.78051476  .00000069  00000+0  57565-4 0  9995
2 26818  82.9282  83.1721 0032539 347.3303 127.5467 13.73981677 80377
COSMOS 2389 [-]         
1 27436U 02026A   22358.82039350  .00000065  00000+0  51878-4 0  9995
2 27436  82.9508  29.1336 0045886 202.9702 331.1277 13.74990709 32528
COSMOS 2398 [-]         
1 27818U 03023A   22358.76008160  .00000037  00000+0  24095-4 0  9995
2 27818  82.9481 351.3892 0030081 242.2754 291.1637 13.72225804979489
COSMOS 2407 [+]         
1 28380U 04028A   22358.87066993  .00000053  00000+0  38726-4 0  9990
2 28380  82.9606 295.4428 0038549 203.2643 210.9922 13.76130314925344
COSMOS 2414 [+]         
1 28521U 05002A   22358.89410700  .00000075  00000+0  50299-4 0  9994
2 28521  82.9501 284.2414 0040237 353.1868   6.8742 13.87676477907650
COSMOS 2429 [-]         
1 32052U 07038A   22359.46717551  .00000061  00000+0  47661-4 0  9991
2 32052  82.9809  61.5789 0038580 178.8974 181.2274 13.74978475767240
COSMOS 2454 [-]         
1 35635U 09039A   22359.02643400  .00000073  00000+0  46927-4 0  9994
2 35635  82.9567 270.1326 0018080 295.5803  75.4852 13.89705621681166
COSMOS 2463 [+]         
1 36519U 10017A   22358.85813279  .00000051  00000+0  39238-4 0  9990
2 36519  82.9608 102.9678 0037192  56.1105  62.5398 13.71488170633793
